{
  "type": "FeatureCollection",
  "features": [
    {
      "type": "Feature",
      "properties": {
        "norad_id": 32275,
        "name": "COSMOS 2433 (720)",
        "group": "glo-ops",
        "lat": -59.43177881767467,
        "lon": -167.93938266910234,
        "alt_km": 19122.13047053627,
        "timestamp": "2025-12-15T07:02:37.877295+00:00",
        "meta_object_name": "COSMOS 2433 (720)",
        "meta_object_id": "2007-052A",
        "meta_epoch": "2025-12-14T11:55:54.844320",
        "meta_mean_motion": 2.13103937,
        "meta_eccentricity": 0.00054818,
        "meta_inclination": 65.6821,
        "meta_ra_of_asc_node": 322.1464,
        "meta_arg_of_pericenter": 253.0892,
        "meta_mean_anomaly": 106.8496,
        "meta_ephemeris_type": 0,
        "meta_classification_type": "U",
        "meta_norad_cat_id": 32275,
        "meta_element_set_no": 999,
        "meta_rev_at_epoch": 14112,
        "meta_bstar": 0,
        "meta_mean_motion_dot": -6.4e-07,
        "meta_mean_motion_ddot": 0,
        "tle_line1": "1 32275U 07052A   25348.49716255 -.00000064  00000+0  00000+0 0  9993",
        "tle_line2": "2 32275  65.6821 322.1464 0005481 253.0892 106.8496  2.13103937141120"
      },
      "geometry": {
        "type": "Point",
        "coordinates": [
          -167.93938266910234,
          -59.43177881767467
        ]
      }
    },
    {
      "type": "Feature",
      "properties": {
        "norad_id": 32276,
        "name": "COSMOS 2432 (719)",
        "group": "glo-ops",
        "lat": -13.880614062900237,
        "lon": 148.64356056093456,
        "alt_km": 19145.164181297994,
        "timestamp": "2025-12-15T07:02:37.877318+00:00",
        "meta_object_name": "COSMOS 2432 (719)",
        "meta_object_id": "2007-052B",
        "meta_epoch": "2025-12-14T13:36:30.109824",
        "meta_mean_motion": 2.13103074,
        "meta_eccentricity": 0.00112617,
        "meta_inclination": 65.6978,
        "meta_ra_of_asc_node": 322.2682,
        "meta_arg_of_pericenter": 312.3582,
        "meta_mean_anomaly": 45.6283,
        "meta_ephemeris_type": 0,
        "meta_classification_type": "U",
        "meta_norad_cat_id": 32276,
        "meta_element_set_no": 999,
        "meta_rev_at_epoch": 14114,
        "meta_bstar": 0,
        "meta_mean_motion_dot": -6.4e-07,
        "meta_mean_motion_ddot": 0,
        "tle_line1": "1 32276U 07052B   25348.56701516 -.00000064  00000+0  00000+0 0  9996",
        "tle_line2": "2 32276  65.6978 322.2682 0011261 312.3582  45.6283  2.13103074141143"
      },
      "geometry": {
        "type": "Point",
        "coordinates": [
          148.64356056093456,
          -13.880614062900237
        ]
      }
    },
    {
      "type": "Feature",
      "properties": {
        "norad_id": 32393,
        "name": "COSMOS 2434 (721)",
        "group": "glo-ops",
        "lat": 34.11935281050161,
        "lon": -0.9110892934895475,
        "alt_km": 19122.34325079969,
        "timestamp": "2025-12-15T07:02:37.877334+00:00",
        "meta_object_name": "COSMOS 2434 (721)",
        "meta_object_id": "2007-065A",
        "meta_epoch": "2025-12-10T15:35:17.035872",
        "meta_mean_motion": 2.13101152,
        "meta_eccentricity": 0.0004304,
        "meta_inclination": 64.3147,
        "meta_ra_of_asc_node": 198.2738,
        "meta_arg_of_pericenter": 71.148,
        "meta_mean_anomaly": 107.63,
        "meta_ephemeris_type": 0,
        "meta_classification_type": "U",
        "meta_norad_cat_id": 32393,
        "meta_element_set_no": 999,
        "meta_rev_at_epoch": 13975,
        "meta_bstar": 0,
        "meta_mean_motion_dot": 4.8e-07,
        "meta_mean_motion_ddot": 0,
        "tle_line1": "1 32393U 07065A   25344.64950273  .00000048  00000+0  00000+0 0  9992",
        "tle_line2": "2 32393  64.3147 198.2738 0004304  71.1480 107.6300  2.13101152139755"
      },
      "geometry": {
        "type": "Point",
        "coordinates": [
          -0.9110892934895475,
          34.11935281050161
        ]
      }
    },
    {
      "type": "Feature",
      "properties": {
        "norad_id": 32395,
        "name": "COSMOS 2436 (723)",
        "group": "glo-ops",
        "lat": -63.97675400315352,
        "lon": 118.01578549859572,
        "alt_km": 19140.508386752404,
        "timestamp": "2025-12-15T07:02:37.877348+00:00",
        "meta_object_name": "COSMOS 2436 (723)",
        "meta_object_id": "2007-065C",
        "meta_epoch": "2025-12-08T02:01:11.627904",
        "meta_mean_motion": 2.13100022,
        "meta_eccentricity": 0.00177472,
        "meta_inclination": 64.3236,
        "meta_ra_of_asc_node": 198.4308,
        "meta_arg_of_pericenter": 9.2257,
        "meta_mean_anomaly": 134.6131,
        "meta_ephemeris_type": 0,
        "meta_classification_type": "U",
        "meta_norad_cat_id": 32395,
        "meta_element_set_no": 999,
        "meta_rev_at_epoch": 13965,
        "meta_bstar": 0,
        "meta_mean_motion_dot": 5.1e-07,
        "meta_mean_motion_ddot": 0,
        "tle_line1": "1 32395U 07065C   25342.08416236  .00000051  00000+0  00000+0 0  9990",
        "tle_line2": "2 32395  64.3236 198.4308 0017747   9.2257 134.6131  2.13100022139656"
      },
      "geometry": {
        "type": "Point",
        "coordinates": [
          118.01578549859572,
          -63.97675400315352
        ]
      }
    },
    {
      "type": "Feature",
      "properties": {
        "norad_id": 36111,
        "name": "COSMOS 2456 (730)",
        "group": "glo-ops",
        "lat": -52.69366487174766,
        "lon": 39.36681206451911,
        "alt_km": 19127.77960691268,
        "timestamp": "2025-12-15T07:02:37.877360+00:00",
        "meta_object_name": "COSMOS 2456 (730)",
        "meta_object_id": "2009-070A",
        "meta_epoch": "2025-12-14T09:56:44.941056",
        "meta_mean_motion": 2.13103612,
        "meta_eccentricity": 0.00031175,
        "meta_inclination": 64.9016,
        "meta_ra_of_asc_node": 77.2804,
        "meta_arg_of_pericenter": 298.1789,
        "meta_mean_anomaly": 45.9889,
        "meta_ephemeris_type": 0,
        "meta_classification_type": "U",
        "meta_norad_cat_id": 36111,
        "meta_element_set_no": 999,
        "meta_rev_at_epoch": 12448,
        "meta_bstar": 0,
        "meta_mean_motion_dot": -5.7e-07,
        "meta_mean_motion_ddot": 0,
        "tle_line1": "1 36111U 09070A   25348.41440904 -.00000057  00000+0  00000+0 0  9997",
        "tle_line2": "2 36111  64.9016  77.2804 0003117 298.1789  45.9889  2.13103612124485"
      },
      "geometry": {
        "type": "Point",
        "coordinates": [
          39.36681206451911,
          -52.69366487174766
        ]
      }
    },
    {
      "type": "Feature",
      "properties": {
        "norad_id": 36112,
        "name": "COSMOS 2457 (733)",
        "group": "glo-ops",
        "lat": 56.881609276421194,
        "lon": 122.9788420268655,
        "alt_km": 19123.837217303415,
        "timestamp": "2025-12-15T07:02:37.877372+00:00",
        "meta_object_name": "COSMOS 2457 (733)",
        "meta_object_id": "2009-070B",
        "meta_epoch": "2025-12-13T07:58:58.732608",
        "meta_mean_motion": 2.13100875,
        "meta_eccentricity": 0.00047033,
        "meta_inclination": 64.8861,
        "meta_ra_of_asc_node": 77.165,
        "meta_arg_of_pericenter": 158.447,
        "meta_mean_anomaly": 204.9439,
        "meta_ephemeris_type": 0,
        "meta_classification_type": "U",
        "meta_norad_cat_id": 36112,
        "meta_element_set_no": 999,
        "meta_rev_at_epoch": 12447,
        "meta_bstar": 0,
        "meta_mean_motion_dot": -5.1e-07,
        "meta_mean_motion_ddot": 0,
        "tle_line1": "1 36112U 09070B   25347.33262422 -.00000051  00000+0  00000+0 0  9999",
        "tle_line2": "2 36112  64.8861  77.1650 0004703 158.4470 204.9439  2.13100875124473"
      },
      "geometry": {
        "type": "Point",
        "coordinates": [
          122.9788420268655,
          56.881609276421194
        ]
      }
    },
    {
      "type": "Feature",
      "properties": {
        "norad_id": 36402,
        "name": "COSMOS 2460 (732)",
        "group": "glo-ops",
        "lat": 57.0637876085845,
        "lon": 5.335756806959052,
        "alt_km": 19129.346224930865,
        "timestamp": "2025-12-15T07:02:37.877384+00:00",
        "meta_object_name": "COSMOS 2460 (732)",
        "meta_object_id": "2010-007C",
        "meta_epoch": "2025-12-13T13:53:49.157952",
        "meta_mean_motion": 2.13106108,
        "meta_eccentricity": 0.00026771,
        "meta_inclination": 65.5289,
        "meta_ra_of_asc_node": 320.7443,
        "meta_arg_of_pericenter": 274.1475,
        "meta_mean_anomaly": 277.7778,
        "meta_ephemeris_type": 0,
        "meta_classification_type": "U",
        "meta_norad_cat_id": 36402,
        "meta_element_set_no": 999,
        "meta_rev_at_epoch": 12277,
        "meta_bstar": 0,
        "meta_mean_motion_dot": -6.1e-07,
        "meta_mean_motion_ddot": 0,
        "tle_line1": "1 36402U 10007C   25347.57904118 -.00000061  00000+0  00000+0 0  9995",
        "tle_line2": "2 36402  65.5289 320.7443 0002677 274.1475 277.7778  2.13106108122773"
      },
      "geometry": {
        "type": "Point",
        "coordinates": [
          5.335756806959052,
          57.0637876085845
        ]
      }
    }
  ]
}